NORAD_CAT_ID,OBJECT_NAME,OBJECT_TYPE,EPOCH,MEAN_MOTION,ECCENTRICITY,INCLINATION,RA_OF_ASC_NODE,ARG_OF_PERICENTER,MEAN_ANOMALY,BSTAR,MEAN_MOTION_DOT,MEAN_MOTION_DDOT,TLE_LINE0,TLE_LINE1,TLE_LINE2,SEMIMAJOR_AXIS,PERIOD,APOGEE,PERIGEE,DECAYED
52338.0,STARLINK-3815,PAYLOAD,2023-05-04 10:55:20,15.18796655,0.0005636,53.2147,195.4678,341.852,18.2275,0.0015288,0.00032029,0.0,0 STARLINK-3815,1 52338U 22045H   23124.45509378  .00032029  00000-0  15288-2 0  9999,2 52338  53.2147 195.4678 0005636 341.8520  18.2275 15.18796655 58650,6887.613,94.812,513.36,505.596,0.0
52338.0,STARLINK-3815,PAYLOAD,2023-05-04 12:30:05,15.18804319,0.0005655,53.2148,195.1678,342.0776,18.0021,0.0017103,0.00035896,0.0,0 STARLINK-3815,1 52338U 22045H   23124.52089888  .00035896  00000-0  17103-2 0  9999,2 52338  53.2148 195.1678 0005655 342.0776  18.0021 15.18804319 58660,6887.59,94.811,513.35,505.56,0.0
52338.0,STARLINK-3815,PAYLOAD,2023-05-05 13:46:12,15.18867998,0.0005909,53.2141,190.3679,345.9439,14.1392,0.0014376,0.00030155,0.0,0 STARLINK-3815,1 52338U 22045H   23125.57375816  .00030155  00000-0  14376-2 0  9996,2 52338  53.2141 190.3679 0005909 345.9439  14.1392 15.18867998 58829,6887.398,94.807,513.332,505.193,0.0
52338.0,STARLINK-3815,PAYLOAD,2023-05-05 21:39:59,15.18887694,0.0005968,53.214,188.8679,347.2043,12.8801,0.0014507,0.00030451,0.0,0 STARLINK-3815,1 52338U 22045H   23125.90276784  .00030451  00000-0  14507-2 0  9992,2 52338  53.2140 188.8679 0005968 347.2043  12.8801 15.18887694 58871,6887.338,94.806,513.313,505.093,0.0
52338.0,STARLINK-3815,PAYLOAD,2023-05-06 21:21:15,15.18960468,0.0006112,53.2141,184.3672,350.9725,9.1161,0.0019041,0.00040208,0.0,0 STARLINK-3815,1 52338U 22045H   23126.88976794  .00040208  00000-0  19041-2 0  9997,2 52338  53.2141 184.3672 0006112 350.9725   9.1161 15.18960468 59023,6887.118,94.802,513.192,504.774,0.0
52338.0,STARLINK-3815,PAYLOAD,2023-05-07 09:59:15,15.18991231,0.0006148,53.2142,181.9664,352.8051,7.2856,0.00144,0.00030316,0.0,0 STARLINK-3815,1 52338U 22045H   23127.41614875  .00030316  00000-0  14400-2 0  9999,2 52338  53.2142 181.9664 0006148 352.8051   7.2856 15.18991231 59101,6887.025,94.8,513.124,504.656,0.0
52338.0,STARLINK-3815,PAYLOAD,2023-05-07 21:02:28,15.19017955,0.0006298,53.2134,179.8663,353.5214,6.57,0.0014886,0.00031379,0.0,0 STARLINK-3815,1 52338U 22045H   23127.87672409  .00031379  00000-0  14886-2 0  9994,2 52338  53.2134 179.8663 0006298 353.5214   6.5700 15.19017955 59172,6886.944,94.798,513.147,504.472,0.0
52338.0,STARLINK-3815,PAYLOAD,2023-05-08 20:43:38,15.19071695,0.0006474,53.2139,175.3654,357.4342,2.6621,0.0014415,0.00030421,0.0,0 STARLINK-3815,1 52338U 22045H   23128.86364563  .00030421  00000-0  14415-2 0  9998,2 52338  53.2139 175.3654 0006474 357.4342   2.6621 15.19071695 59326,6886.782,94.795,513.105,504.188,0.0
52338.0,STARLINK-3815,PAYLOAD,2023-05-09 12:31:04,15.19104496,0.0006593,53.2146,172.3649,359.6591,0.44,0.0013642,0.00028794,0.0,0 STARLINK-3815,1 52338U 22045H   23129.52157434  .00028794  00000-0  13642-2 0  9990,2 52338  53.2146 172.3649 0006593 359.6591   0.4400 15.19104496 59425,6886.683,94.793,513.088,504.007,0.0
52338.0,STARLINK-3815,PAYLOAD,2023-05-10 12:12:09,15.19153372,0.0006752,53.2152,167.8641,2.685,357.4181,0.0013294,0.00028089,0.0,0 STARLINK-3815,1 52338U 22045H   23130.50844031  .00028089  00000-0  13294-2 0  9996,2 52338  53.2152 167.8641 0006752   2.6850 357.4181 15.19153372 59577,6886.535,94.79,513.05,503.75,0.0
52338.0,STARLINK-3815,PAYLOAD,2023-05-10 20:05:50,15.19171183,0.0006762,53.2154,166.3633,3.7055,356.3991,0.0013816,0.00029224,0.0,0 STARLINK-3815,1 52338U 22045H   23130.83738843  .00029224  00000-0  13816-2 0  9997,2 52338  53.2154 166.3633 0006762   3.7055 356.3991 15.19171183 59627,6886.481,94.789,513.003,503.69,0.0
52338.0,STARLINK-3815,PAYLOAD,2023-05-11 08:43:43,15.19191761,0.0006899,53.2159,163.9631,5.6547,354.4527,0.0010716,0.00022588,0.0,0 STARLINK-3815,1 52338U 22045H   23131.36369887  .00022588  00000-0  10716-2 0  9996,2 52338  53.2159 163.9631 0006899   5.6547 354.4527 15.19191761 59708,6886.419,94.787,513.035,503.533,0.0
52338.0,STARLINK-3815,PAYLOAD,2023-05-11 22:56:19,15.19239975,0.0006871,53.2167,161.2615,7.3471,352.7625,0.00148,0.00031402,0.0,0 STARLINK-3815,1 52338U 22045H   23131.95578080  .00031402  00000-0  14800-2 0  9991,2 52338  53.2167 161.2615 0006871   7.3471 352.7625 15.19239975 59794,6886.273,94.784,512.87,503.407,0.0
52338.0,STARLINK-3815,PAYLOAD,2023-05-12 08:24:42,15.19258734,0.0006999,53.2169,159.4616,8.7509,351.3608,0.0012876,0.00027278,0.0,0 STARLINK-3815,1 52338U 22045H   23132.35049640  .00027278  00000-0  12876-2 0  9998,2 52338  53.2169 159.4616 0006999   8.7509 351.3608 15.19258734 59851,6886.217,94.783,512.901,503.262,0.0
52338.0,STARLINK-3815,PAYLOAD,2023-05-12 22:37:16,15.19313353,0.0007683,53.2165,156.7576,8.9041,351.2091,0.0020138,0.0004301,0.0,0 STARLINK-3815,1 52338U 22045H   23132.94255421  .00043010  00000-0  20138-2 0  9991,2 52338  53.2165 156.7576 0007683   8.9041 351.2091 15.19313353 59940,6886.052,94.78,513.207,502.626,0.0
52338.0,STARLINK-3815,PAYLOAD,2023-05-13 08:05:38,15.19344429,0.0007126,53.2173,154.9593,11.7654,348.3508,0.0018481,0.00039457,0.0,0 STARLINK-3815,1 52338U 22045H   23133.33724728  .00039457  00000-0  18481-2 0  9994,2 52338  53.2173 154.9593 0007126  11.7654 348.3508 15.19344429 60009,6885.958,94.778,512.73,502.916,0.0
52338.0,STARLINK-3815,PAYLOAD,2023-05-13 12:49:49,15.19343058,0.0007479,53.2175,154.059,14.1516,345.9689,0.0013715,0.00029158,0.0,0 STARLINK-3815,1 52338U 22045H   23133.53459572  .00029158  00000-0  13715-2 0  9990,2 52338  53.2175 154.0590 0007479  14.1516 345.9689 15.19343058 60037,6885.962,94.778,512.977,502.677,0.0
52338.0,STARLINK-3815,PAYLOAD,2023-05-14 07:46:33,15.193156,0.0007493,53.2166,150.4527,12.2727,347.8451,0.0011256,0.00023835,0.0,0 STARLINK-3815,1 52338U 22045H   23134.32399711  .00023835  00000-0  11256-2 0  9990,2 52338  53.2166 150.4527 0007493  12.2727 347.8451 15.19315600 60159,6886.045,94.78,513.07,502.75,0.0
52338.0,STARLINK-3815,PAYLOAD,2023-05-15 01:08:34,15.19304268,0.0007036,53.2181,147.1614,18.333,341.7919,0.00060904,0.00012723,0.0,0 STARLINK-3815,1 52338U 22045H   23135.04762157  .00012723  00000-0  60904-3 0  9997,2 52338  53.2181 147.1614 0007036  18.3330 341.7919 15.19304268 60268,6886.079,94.78,512.789,503.099,0.0
52338.0,STARLINK-3815,PAYLOAD,2023-05-15 07:27:29,15.19297283,0.0006826,53.2184,145.9571,19.5786,340.5472,-2.6818e-05,-8.96e-06,0.0,0 STARLINK-3815,1 52338U 22045H   23135.31075651 -.00000896  00000-0 -26818-4 0  9990,2 52338  53.2184 145.9571 0006826  19.5786 340.5472 15.19297283 60307,6886.1,94.781,512.666,503.265,0.0
52338.0,STARLINK-3815,PAYLOAD,2023-05-16 10:17:52,15.1929919,0.0006995,53.2181,140.8554,21.7528,338.3765,0.00010002,1.816e-05,0.0,0 STARLINK-3815,1 52338U 22045H   23136.42908167  .00001816  00000-0  10002-3 0  9998,2 52338  53.2181 140.8554 0006995  21.7528 338.3765 15.19299190 60472,6886.094,94.781,512.776,503.143,0.0
52338.0,STARLINK-3815,PAYLOAD,2023-05-17 00:30:28,15.19266523,0.0007511,53.2201,138.1578,19.8971,340.2318,-4.9711e-05,-1.385e-05,0.0,0 STARLINK-3815,1 52338U 22045H   23137.02116886 -.00001385  00000-0 -49711-4 0  9997,2 52338  53.2201 138.1578 0007511  19.8971 340.2318 15.19266523 60566,6886.193,94.783,513.23,502.886,0.0
52338.0,STARLINK-3815,PAYLOAD,2023-05-17 09:58:52,15.19254987,0.0006709,53.219,136.354,24.9734,335.1586,-0.00012113,-2.908e-05,0.0,0 STARLINK-3815,1 52338U 22045H   23137.41588795 -.00002908  00000-0 -12113-3 0  9999,2 52338  53.2190 136.3540 0006709  24.9734 335.1586 15.19254987 60622,6886.228,94.783,512.713,503.473,0.0
52338.0,STARLINK-3815,PAYLOAD,2023-05-18 00:11:30,15.19217391,0.0006486,53.2193,133.6535,24.2873,335.8428,-0.0003482,-7.741e-05,0.0,0 STARLINK-3815,1 52338U 22045H   23138.00799617 -.00007741  00000-0 -34820-3 0  9991,2 52338  53.2193 133.6535 0006486  24.2873 335.8428 15.19217391 60718,6886.342,94.786,512.673,503.74,0.0
52338.0,STARLINK-3815,PAYLOAD,2023-05-18 09:39:56,15.19195091,0.0006497,53.2195,131.8539,28.273,331.8618,-0.00045189,-9.941e-05,0.0,0 STARLINK-3815,1 52338U 22045H   23138.40273788 -.00009941  00000-0 -45189-3 0  9995,2 52338  53.2195 131.8539 0006497  28.2730 331.8618 15.19195091 60777,6886.409,94.787,512.748,503.8,0.0
52338.0,STARLINK-3815,PAYLOAD,2023-05-18 23:52:36,15.19141861,0.0006068,53.2193,129.1531,29.0945,331.0389,-0.00036074,-7.99e-05,0.0,0 STARLINK-3815,1 52338U 22045H   23138.99487038 -.00007990  00000-0 -36074-3 0  9999,2 52338  53.2193 129.1531 0006068  29.0945 331.0389 15.19141861 60861,6886.57,94.79,512.614,504.256,0.0
52338.0,STARLINK-3815,PAYLOAD,2023-05-19 06:11:35,15.19122318,0.0006049,53.2194,127.9523,31.4782,328.6576,-0.00045804,-0.0001005,0.0,0 STARLINK-3815,1 52338U 22045H   23139.25804754 -.00010050  00000-0 -45804-3 0  9999,2 52338  53.2194 127.9523 0006049  31.4782 328.6576 15.19122318 60905,6886.629,94.792,512.66,504.328,0.0
52338.0,STARLINK-3815,PAYLOAD,2023-05-19 15:40:03,15.19093749,0.0006058,53.2198,126.1549,34.3087,325.83,-0.0005397,-0.00011772,0.0,0 STARLINK-3815,1 52338U 22045H   23139.65281925 -.00011772  00000-0 -53970-3 0  9997,2 52338  53.2198 126.1549 0006058  34.3087 325.8300 15.19093749 60963,6886.715,94.793,512.752,504.408,0.0
52338.0,STARLINK-3815,PAYLOAD,2023-05-20 02:43:17,15.19043116,0.0005793,53.2189,124.0493,30.8905,329.2431,-0.000425,-9.328e-05,0.0,0 STARLINK-3815,1 52338U 22045H   23140.11339956 -.00009328  00000-0 -42500-3 0  9999,2 52338  53.2189 124.0493 0005793  30.8905 329.2431 15.19043116 61038,6886.868,94.797,512.723,504.744,0.0
52338.0,STARLINK-3815,PAYLOAD,2023-05-20 15:21:16,15.19016402,0.0005614,53.2196,121.6535,37.9332,322.2059,-0.00052963,-0.00011533,0.0,0 STARLINK-3815,1 52338U 22045H   23140.63978008 -.00011533  00000-0 -52963-3 0  9998,2 52338  53.2196 121.6535 0005614  37.9332 322.2059 15.19016402 61116,6886.949,94.798,512.68,504.948,0.0
